CCSDS_OMM_VERS,COMMENT,CREATION_DATE,ORIGINATOR,OBJECT_NAME,OBJECT_ID,CENTER_NAME,REF_FRAME,TIME_SYSTEM,MEAN_ELEMENT_THEORY,EPOCH,MEAN_MOTION,ECCENTRICITY,INCLINATION,RA_OF_ASC_NODE,ARG_OF_PERICENTER,MEAN_ANOMALY,EPHEMERIS_TYPE,CLASSIFICATION_TYPE,NORAD_CAT_ID,ELEMENT_SET_NO,REV_AT_EPOCH,BSTAR,MEAN_MOTION_DOT,MEAN_MOTION_DDOT,SEMIMAJOR_AXIS,PERIOD,APOAPSIS,PERIAPSIS,OBJECT_TYPE,RCS_SIZE,COUNTRY_CODE,LAUNCH_DATE,SITE,DECAY_DATE,FILE,GP_ID,TLE_LINE0,TLE_LINE1,TLE_LINE2
"2.0","GENERATED VIA SPACE-TRACK.ORG API","2020-11-25T14:26:11","18 SPCS","BRO-1","2019-054A","EARTH","TEME","UTC","SGP4","2020-11-25T13:24:31.417344","15.08638140","0.00122330","45.0189","156.0330","346.4519","50.6452","0","U","44495","999","7010","0.00005932200000","0.00000696","0.0000000000000","6918.497","95.450","548.825","531.899","PAYLOAD","SMALL","FR","2019-08-19","RLLC","","2888397","166257019","0 BRO-1","1 44495U 19054A   20330.55869696  .00000696  00000-0  59322-4 0  9993","2 44495  45.0189 156.0330 0012233 346.4519  50.6452 15.08638140 70102"
"2.0","GENERATED VIA SPACE-TRACK.ORG API","2020-11-25T22:26:10","18 SPCS","BRO-1","2019-054A","EARTH","TEME","UTC","SGP4","2020-11-25T19:59:23.241696","15.08637681","0.00118410","45.0194","154.5811","347.2289","100.6722","0","U","44495","999","7014","0.00004660900000","0.00000493","0.0000000000000","6918.498","95.450","548.556","532.171","PAYLOAD","SMALL","FR","2019-08-19","RLLC","","2888930","166289579","0 BRO-1","1 44495U 19054A   20330.83290789  .00000493  00000-0  46609-4 0  9994","2 44495  45.0194 154.5811 0011841 347.2289 100.6722 15.08637681 70141"
"2.0","GENERATED VIA SPACE-TRACK.ORG API","2020-11-26T06:26:10","18 SPCS","BRO-1","2019-054A","EARTH","TEME","UTC","SGP4","2020-11-26T05:53:06.469728","15.08637911","0.00118610","45.0195","152.3952","349.3960","180.0906","0","U","44495","999","7020","0.00004253900000","0.00000428","0.0000000000000","6918.498","95.450","548.569","532.157","PAYLOAD","SMALL","FR","2019-08-19","RLLC","","2889583","166339386","0 BRO-1","1 44495U 19054A   20331.24521377  .00000428  00000-0  42539-4 0  9996","2 44495  45.0195 152.3952 0011861 349.3960 180.0906 15.08637911 70204"
"2.0","GENERATED VIA SPACE-TRACK.ORG API","2020-11-26T12:16:10","18 SPCS","BRO-1","2019-054A","EARTH","TEME","UTC","SGP4","2020-11-26T10:15:14.349888","15.08638533","0.00117720","45.0196","151.4301","350.4144","88.7487","0","U","44495","999","7023","0.00004836400000","0.00000521","0.0000000000000","6918.496","95.450","548.505","532.216","PAYLOAD","SMALL","FR","2019-08-19","RLLC","","2889900","166346679","0 BRO-1","1 44495U 19054A   20331.42724942  .00000521  00000-0  48364-4 0  9995","2 44495  45.0196 151.4301 0011772 350.4144  88.7487 15.08638533 70233"
"2.0","GENERATED VIA SPACE-TRACK.ORG API","2020-11-26T20:45:39","18 SPCS","BRO-1","2019-054A","EARTH","TEME","UTC","SGP4","2020-11-26T13:32:09.884256","15.08638122","0.00117330","45.0198","150.7051","351.1243","111.5283","0","U","44495","999","7025","0.00003985600000","0.00000386","0.0000000000000","6918.497","95.450","548.479","532.245","PAYLOAD","SMALL","FR","2019-08-19","RLLC","","2890085","166368901","0 BRO-1","1 44495U 19054A   20331.56400329 +.00000386 +00000-0 +39856-4 0  9995","2 44495 045.0198 150.7051 0011733 351.1243 111.5283 15.08638122070259"
"2.0","GENERATED VIA SPACE-TRACK.ORG API","2020-11-26T21:46:10","18 SPCS","BRO-1","2019-054A","EARTH","TEME","UTC","SGP4","2020-11-26T18:09:23.749632","15.08637333","0.00117190","45.0196","149.6844","352.2124","77.1211","0","U","44495","999","7028","0.00002600400000","0.00000165","0.0000000000000","6918.499","95.450","548.472","532.257","PAYLOAD","SMALL","FR","2019-08-19","RLLC","","2890326","166398252","0 BRO-1","1 44495U 19054A   20331.75652488  .00000165  00000-0  26004-4 0  9997","2 44495  45.0196 149.6844 0011719 352.2124  77.1211 15.08637333 70282"
"2.0","GENERATED VIA SPACE-TRACK.ORG API","2020-11-27T04:57:55","18 SPCS","BRO-1","2019-054A","EARTH","TEME","UTC","SGP4","2020-11-26T21:39:57.016800","15.08637626","0.00117040","45.0195","148.9091","352.9765","151.3044","0","U","44495","999","7030","0.00002789400000","0.00000195","0.0000000000000","6918.499","95.450","548.461","532.266","PAYLOAD","SMALL","FR","2019-08-19","RLLC","","2890601","166423052","0 BRO-1","1 44495U 19054A   20331.90274325 +.00000195 +00000-0 +27894-4 0  9995","2 44495 045.0195 148.9091 0011704 352.9765 151.3044 15.08637626070306"
"2.0","GENERATED VIA SPACE-TRACK.ORG API","2020-11-27T06:26:11","18 SPCS","BRO-1","2019-054A","EARTH","TEME","UTC","SGP4","2020-11-26T23:11:54.914784","15.08637842","0.00117130","45.0195","148.5705","353.4013","138.0932","0","U","44495","999","7031","0.00002956600000","0.00000222","0.0000000000000","6918.498","95.450","548.467","532.259","PAYLOAD","SMALL","FR","2019-08-19","RLLC","","2890789","166428908","0 BRO-1","1 44495U 19054A   20331.96660781  .00000222  00000-0  29566-4 0  9995","2 44495  45.0195 148.5705 0011713 353.4013 138.0932 15.08637842 70315"
"2.0","GENERATED VIA SPACE-TRACK.ORG API","2020-11-27T14:26:11","18 SPCS","BRO-1","2019-054A","EARTH","TEME","UTC","SGP4","2020-11-27T10:06:08.049600","15.08638000","0.00117780","45.0197","146.1619","355.8120","85.6795","0","U","44495","999","7038","0.00002647000000","0.00000172","0.0000000000000","6918.497","95.450","548.511","532.214","PAYLOAD","SMALL","FR","2019-08-19","RLLC","","2891125","166437052","0 BRO-1","1 44495U 19054A   20332.42092650  .00000172  00000-0  26470-4 0  9996","2 44495  45.0197 146.1619 0011778 355.8120  85.6795 15.08638000 70389"
"2.0","GENERATED VIA SPACE-TRACK.ORG API","2020-11-27T20:30:34","18 SPCS","BRO-1","2019-054A","EARTH","TEME","UTC","SGP4","2020-11-27T13:23:00.835584","15.08637926","0.00117740","45.0196","145.4370","356.5526","108.2565","0","U","44495","999","7040","0.00002391800000","0.00000132","0.0000000000000","6918.498","95.450","548.508","532.217","PAYLOAD","SMALL","FR","2019-08-19","RLLC","","2891346","166461497","0 BRO-1","1 44495U 19054A   20332.55764856 +.00000132 +00000-0 +23918-4 0  9994","2 44495 045.0196 145.4370 0011774 356.5526 108.2565 15.08637926070404"
"2.0","GENERATED VIA SPACE-TRACK.ORG API","2020-11-27T22:26:11","18 SPCS","BRO-1","2019-054A","EARTH","TEME","UTC","SGP4","2020-11-27T18:00:58.769280","15.08637904","0.00117510","45.0195","144.4139","357.6287","76.6368","0","U","44495","999","7043","0.00002193600000","0.00000100","0.0000000000000","6918.498","95.450","548.493","532.233","PAYLOAD","SMALL","FR","2019-08-19","RLLC","","2891536","166467057","0 BRO-1","1 44495U 19054A   20332.75068020  .00000100  00000-0  21936-4 0  9999","2 44495  45.0195 144.4139 0011751 357.6287  76.6368 15.08637904 70434"
"2.0","GENERATED VIA SPACE-TRACK.ORG API","2020-11-28T01:07:54","18 SPCS","BRO-1","2019-054A","EARTH","TEME","UTC","SGP4","2020-11-27T21:31:02.835840","15.08638122","0.00117680","45.0191","143.6403","358.4585","148.9169","0","U","44495","999","7045","0.00002351500000","0.00000125","0.0000000000000","6918.497","95.450","548.504","532.220","PAYLOAD","SMALL","FR","2019-08-19","RLLC","","2891699","166491099","0 BRO-1","1 44495U 19054A   20332.89656060 +.00000125 +00000-0 +23515-4 0  9993","2 44495 045.0191 143.6403 0011768 358.4585 148.9169 15.08638122070450"
"2.0","GENERATED VIA SPACE-TRACK.ORG API","2020-11-28T06:36:10","18 SPCS","BRO-1","2019-054A","EARTH","TEME","UTC","SGP4","2020-11-27T23:03:50.500224","15.08638190","0.00118320","45.0192","143.2986","358.9310","138.7887","0","U","44495","999","7046","0.00002328700000","0.00000122","0.0000000000000","6918.497","95.450","548.548","532.176","PAYLOAD","SMALL","FR","2019-08-19","RLLC","","2891948","166497946","0 BRO-1","1 44495U 19054A   20332.96100116  .00000122  00000-0  23287-4 0  9990","2 44495  45.0192 143.2986 0011832 358.9310 138.7887 15.08638190 70466"
"2.0","GENERATED VIA SPACE-TRACK.ORG API","2020-11-28T14:36:11","18 SPCS","BRO-1","2019-054A","EARTH","TEME","UTC","SGP4","2020-11-28T11:17:15.603072","15.08638828","0.00118310","45.0195","140.5978","1.6556","25.0822","0","U","44495","999","7054","0.00002540000000","0.00000155","0.0000000000000","6918.495","95.450","548.545","532.175","PAYLOAD","SMALL","FR","2019-08-19","RLLC","","2892392","166507659","0 BRO-1","1 44495U 19054A   20333.47031948  .00000155  00000-0  25400-4 0  9998","2 44495  45.0195 140.5978 0011831   1.6556  25.0822 15.08638828 70547"
"2.0","GENERATED VIA SPACE-TRACK.ORG API","2020-11-28T20:10:50","18 SPCS","BRO-1","2019-054A","EARTH","TEME","UTC","SGP4","2020-11-28T13:13:50.928096","15.08638743","0.00117970","45.0191","140.1693","2.0707","104.8467","0","U","44495","999","7055","0.00002394600000","0.00000132","0.0000000000000","6918.495","95.450","548.522","532.198","PAYLOAD","SMALL","FR","2019-08-19","RLLC","","2892611","166532879","0 BRO-1","1 44495U 19054A   20333.55128389 +.00000132 +00000-0 +23946-4 0  9991","2 44495 045.0191 140.1693 0011797 002.0707 104.8467 15.08638743070555"
"2.0","GENERATED VIA SPACE-TRACK.ORG API","2020-11-28T22:46:09","18 SPCS","BRO-1","2019-054A","EARTH","TEME","UTC","SGP4","2020-11-28T18:22:51.000384","15.08639324","0.00117410","45.0186","139.0326","3.5713","189.9803","0","U","44495","999","7058","0.00002863900000","0.00000207","0.0000000000000","6918.493","95.450","548.481","532.235","PAYLOAD","SMALL","FR","2019-08-19","RLLC","","2892770","166538063","0 BRO-1","1 44495U 19054A   20333.76586806  .00000207  00000-0  28639-4 0  9993","2 44495  45.0186 139.0326 0011741   3.5713 189.9803 15.08639324 70588"
